{"type": "FeatureCollection", "features": [ {"type": "Feature", "properties": {"norad_id": 34077, "name": "IRIDIUM 33 DEB", "group": "iridium-33-debris", "lat": -27.127995010187576, "lon": 51.11963737665342, "alt_km": 681.9837832397097, "timestamp": "2025-12-09T09:46:48.030518+00:00", "meta": {"OBJECT_NAME": "IRIDIUM 33 DEB", "OBJECT_ID": "1997-051CL", "EPOCH": "2025-12-08T16:24:26.669664", "MEAN_MOTION": 14.64746449, "ECCENTRICITY": 0.00106018, "INCLINATION": 86.3858, "RA_OF_ASC_NODE": 53.2941, "ARG_OF_PERICENTER": 52.2833, "MEAN_ANOMALY": 66.251, "EPHEMERIS_TYPE": 0, "CLASSIFICATION_TYPE": "U", "NORAD_CAT_ID": 34077, "ELEMENT_SET_NO": 999, "REV_AT_EPOCH": 88273, "BSTAR": 0.0022935855, "MEAN_MOTION_DOT": 0.00012259, "MEAN_MOTION_DDOT": 0}, "tle": {"line1": "1 34077U 97051CL  25342.68364201  .00012259  00000+0  22936-2 0  9991", "line2": "2 34077  86.3858  53.2941 0010601  52.2833  66.2510 14.64746449882733"}}, "geometry": {"type": "Point", "coordinates": [51.11963737665342, -27.127995010187576]}}, {"type": "Feature", "properties": {"norad_id": 34079, "name": "IRIDIUM 33 DEB", "group": "iridium-33-debris", "lat": 78.02251256402947, "lon": 172.80235380811112, "alt_km": 610.9419404923747, "timestamp": "2025-12-09T09:46:48.030528+00:00", "meta": {"OBJECT_NAME": "IRIDIUM 33 DEB", "OBJECT_ID": "1997-051CN", "EPOCH": "2025-12-09T03:09:08.418816", "MEAN_MOTION": 14.83376544, "ECCENTRICITY": 0.0006064, "INCLINATION": 86.3775, "RA_OF_ASC_NODE": 10.3028, "ARG_OF_PERICENTER": 19.2898, "MEAN_ANOMALY": 48.3139, "EPHEMERIS_TYPE": 0, "CLASSIFICATION_TYPE": "U", "NORAD_CAT_ID": 34079, "ELEMENT_SET_NO": 999, "REV_AT_EPOCH": 88924, "BSTAR": 0.0018399, "MEAN_MOTION_DOT": 0.0001513, "MEAN_MOTION_DDOT": 0}, "tle": {"line1": "1 34079U 97051CN  25343.13134744  .00015130  00000+0  18399-2 0  9990", "line2": "2 34079  86.3775  10.3028 0006064  19.2898  48.3139 14.83376544889242"}}, "geometry": {"type": "Point", "coordinates": [172.80235380811112, 78.02251256402947]}}, {"type": "Feature", "properties": {"norad_id": 34088, "name": "IRIDIUM 33 DEB", "group": "iridium-33-debris", "lat": 80.14074733299468, "lon": -169.0799464619135, "alt_km": 587.1162124384191, "timestamp": "2025-12-09T09:46:48.030539+00:00", "meta": {"OBJECT_NAME": "IRIDIUM 33 DEB", "OBJECT_ID": "1997-051CX", "EPOCH": "2025-12-09T04:49:13.084896", "MEAN_MOTION": 14.91110401, "ECCENTRICITY": 0.0005438, "INCLINATION": 86.3845, "RA_OF_ASC_NODE": 32.3496, "ARG_OF_PERICENTER": 189.6496, "MEAN_ANOMALY": 240.9859, "EPHEMERIS_TYPE": 0, "CLASSIFICATION_TYPE": "U", "NORAD_CAT_ID": 34088, "ELEMENT_SET_NO": 999, "REV_AT_EPOCH": 88689, "BSTAR": 0.0029799, "MEAN_MOTION_DOT": 0.00029654, "MEAN_MOTION_DDOT": 0}, "tle": {"line1": "1 34088U 97051CX  25343.20084589  .00029654  00000+0  29799-2 0  9991", "line2": "2 34088  86.3845  32.3496 0005438 189.6496 240.9859 14.91110401886897"}}, "geometry": {"type": "Point", "coordinates": [-169.0799464619135, 80.14074733299468]}}, {"type": "Feature", "properties": {"norad_id": 34091, "name": "IRIDIUM 33 DEB", "group": "iridium-33-debris", "lat": 40.33916341920803, "lon": 71.47408019733177, "alt_km": 623.9571568228257, "timestamp": "2025-12-09T09:46:48.030551+00:00", "meta": {"OBJECT_NAME": "IRIDIUM 33 DEB", "OBJECT_ID": "1997-051DA", "EPOCH": "2025-12-09T04:44:05.518176", "MEAN_MOTION": 14.81377151, "ECCENTRICITY": 0.0033284, "INCLINATION": 86.3414, "RA_OF_ASC_NODE": 68.4554, "ARG_OF_PERICENTER": 305.9603, "MEAN_ANOMALY": 53.8532, "EPHEMERIS_TYPE": 0, "CLASSIFICATION_TYPE": "U", "NORAD_CAT_ID": 34091, "ELEMENT_SET_NO": 999, "REV_AT_EPOCH": 87814, "BSTAR": 0.0060294, "MEAN_MOTION_DOT": 0.00047859, "MEAN_MOTION_DDOT": 0}, "tle": {"line1": "1 34091U 97051DA  25343.19728609  .00047859  00000+0  60294-2 0  9993", "line2": "2 34091  86.3414  68.4554 0033284 305.9603  53.8532 14.81377151878145"}}, "geometry": {"type": "Point", "coordinates": [71.47408019733177, 40.33916341920803]}}, {"type": "Feature", "properties": {"norad_id": 34097, "name": "IRIDIUM 33 DEB", "group": "iridium-33-debris", "lat": 49.17102860737175, "lon": 178.4668747529949, "alt_km": 798.6884343130423, "timestamp": "2025-12-09T09:46:48.030561+00:00", "meta": {"OBJECT_NAME": "IRIDIUM 33 DEB", "OBJECT_ID": "1997-051DG", "EPOCH": "2025-12-09T02:28:58.443744", "MEAN_MOTION": 14.34730397, "ECCENTRICITY": 0.0083008, "INCLINATION": 86.2001, "RA_OF_ASC_NODE": 3.0124, "ARG_OF_PERICENTER": 14.0258, "MEAN_ANOMALY": 346.3214, "EPHEMERIS_TYPE": 0, "CLASSIFICATION_TYPE": "U", "NORAD_CAT_ID": 34097, "ELEMENT_SET_NO": 999, "REV_AT_EPOCH": 87067, "BSTAR": 0.0016398, "MEAN_MOTION_DOT": 4.847e-05, "MEAN_MOTION_DDOT": 0}, "tle": {"line1": "1 34097U 97051DG  25343.10345421  .00004847  00000+0  16398-2 0  9993", "line2": "2 34097  86.2001   3.0124 0083008  14.0258 346.3214 14.34730397870673"}}, "geometry": {"type": "Point", "coordinates": [178.4668747529949, 49.17102860737175]}}, {"type": "Feature", "properties": {"norad_id": 34145, "name": "IRIDIUM 33 DEB", "group": "iridium-33-debris", "lat": -51.16129139870723, "lon": -30.710603902989355, "alt_km": 794.0974814452065, "timestamp": "2025-12-09T09:46:48.030572+00:00", "meta": {"OBJECT_NAME": "IRIDIUM 33 DEB", "OBJECT_ID": "1997-051DY", "EPOCH": "2025-12-07T23:03:04.751424", "MEAN_MOTION": 14.42235871, "ECCENTRICITY": 0.0055559, "INCLINATION": 86.2113, "RA_OF_ASC_NODE": 334.6546, "ARG_OF_PERICENTER": 109.0134, "MEAN_ANOMALY": 251.7097, "EPHEMERIS_TYPE": 0, "CLASSIFICATION_TYPE": "U", "NORAD_CAT_ID": 34145, "ELEMENT_SET_NO": 999, "REV_AT_EPOCH": 87569, "BSTAR": 0.0013920574, "MEAN_MOTION_DOT": 4.693e-05, "MEAN_MOTION_DDOT": 0}, "tle": {"line1": "1 34145U 97051DY  25341.96047166  .00004693  00000+0  13921-2 0  9992", "line2": "2 34145  86.2113 334.6546 0055559 109.0134 251.7097 14.42235871875691"}}, "geometry": {"type": "Point", "coordinates": [-30.710603902989355, -51.16129139870723]}}, {"type": "Feature", "properties": {"norad_id": 34146, "name": "IRIDIUM 33 DEB", "group": "iridium-33-debris", "lat": -45.63921862038909, "lon": 175.08330466990407, "alt_km": 717.9732665975944, "timestamp": "2025-12-09T09:46:48.030583+00:00", "meta": {"OBJECT_NAME": "IRIDIUM 33 DEB", "OBJECT_ID": "1997-051DZ", "EPOCH": "2025-12-09T00:42:07.992288", "MEAN_MOTION": 14.49007468, "ECCENTRICITY": 0.0025206, "INCLINATION": 86.2836, "RA_OF_ASC_NODE": 351.4394, "ARG_OF_PERICENTER": 234.8472, "MEAN_ANOMALY": 179.0579, "EPHEMERIS_TYPE": 0, "CLASSIFICATION_TYPE": "U", "NORAD_CAT_ID": 34146, "ELEMENT_SET_NO": 999, "REV_AT_EPOCH": 88053, "BSTAR": 0.0011766, "MEAN_MOTION_DOT": 4.498e-05, "MEAN_MOTION_DDOT": 0}, "tle": {"line1": "1 34146U 97051DZ  25343.02925917  .00004498  00000+0  11766-2 0  9999", "line2": "2 34146  86.2836 351.4394 0025206 234.8472 179.0579 14.49007468880532"}}, "geometry": {"type": "Point", "coordinates": [175.08330466990407, -45.63921862038909]}}, {"type": "Feature", "properties": {"norad_id": 34159, "name": "IRIDIUM 33 DEB", "group": "iridium-33-debris", "lat": 66.7670618536322, "lon": 58.210608116299774, "alt_km": 768.3775312534117, "timestamp": "2025-12-09T09:46:48.030594+00:00", "meta": {"OBJECT_NAME": "IRIDIUM 33 DEB", "OBJECT_ID": "1997-051EN", "EPOCH": "2025-12-09T04:27:39.301920", "MEAN_MOTION": 14.38479228, "ECCENTRICITY": 0.002602, "INCLINATION": 86.3513, "RA_OF_ASC_NODE": 49.7568, "ARG_OF_PERICENTER": 300.3641, "MEAN_ANOMALY": 59.4984, "EPHEMERIS_TYPE": 0, "CLASSIFICATION_TYPE": "U", "NORAD_CAT_ID": 34159, "ELEMENT_SET_NO": 999, "REV_AT_EPOCH": 87908, "BSTAR": 0.00052184, "MEAN_MOTION_DOT": 1.618e-05, "MEAN_MOTION_DDOT": 0}, "tle": {"line1": "1 34159U 97051EN  25343.18587155  .00001618  00000+0  52184-3 0  9999", "line2": "2 34159  86.3513  49.7568 0026020 300.3641  59.4984 14.38479228879085"}}, "geometry": {"type": "Point", "coordinates": [58.210608116299774, 66.7670618536322]}}, {"type": "Feature", "properties": {"norad_id": 34350, "name": "IRIDIUM 33 DEB", "group": "iridium-33-debris", "lat": 12.71849768690935, "lon": 5.083989996083473, "alt_km": 752.8906110545786, "timestamp": "2025-12-09T09:46:48.030605+00:00", "meta": {"OBJECT_NAME": "IRIDIUM 33 DEB", "OBJECT_ID": "1997-051ES", "EPOCH": "2025-12-09T01:39:34.597152", "MEAN_MOTION": 14.45373278, "ECCENTRICITY": 0.0022473, "INCLINATION": 86.3277, "RA_OF_ASC_NODE": 4.4002, "ARG_OF_PERICENTER": 146.6467, "MEAN_ANOMALY": 266.9742, "EPHEMERIS_TYPE": 0, "CLASSIFICATION_TYPE": "U", "NORAD_CAT_ID": 34350, "ELEMENT_SET_NO": 999, "REV_AT_EPOCH": 88240, "BSTAR": 0.00045977, "MEAN_MOTION_DOT": 1.641e-05, "MEAN_MOTION_DDOT": 0}, "tle": {"line1": "1 34350U 97051ES  25343.06915043  .00001641  00000+0  45977-3 0  9998", "line2": "2 34350  86.3277   4.4002 0022473 146.6467 266.9742 14.45373278882404"}}, "geometry": {"type": "Point", "coordinates": [5.083989996083473, 12.71849768690935]}}, {"type": "Feature", "properties": {"norad_id": 34366, "name": "IRIDIUM 33 DEB", "group": "iridium-33-debris", "lat": -57.49558473915896, "lon": -123.51825007770225, "alt_km": 719.0345945293157, "timestamp": "2025-12-09T09:46:48.030615+00:00", "meta": {"OBJECT_NAME": "IRIDIUM 33 DEB", "OBJECT_ID": "1997-051FJ", "EPOCH": "2025-12-09T03:52:20.332416", "MEAN_MOTION": 14.54006735, "ECCENTRICITY": 0.0022203, "INCLINATION": 86.3691, "RA_OF_ASC_NODE": 50.8695, "ARG_OF_PERICENTER": 150.9787, "MEAN_ANOMALY": 238.7279, "EPHEMERIS_TYPE": 0, "CLASSIFICATION_TYPE": "U", "NORAD_CAT_ID": 34366, "ELEMENT_SET_NO": 999, "REV_AT_EPOCH": 88130, "BSTAR": 0.0013456, "MEAN_MOTION_DOT": 5.71e-05, "MEAN_MOTION_DDOT": 0}, "tle": {"line1": "1 34366U 97051FJ  25343.16134644  .00005710  00000+0  13456-2 0  9993", "line2": "2 34366  86.3691  50.8695 0022203 150.9787 238.7279 14.54006735881309"}}, "geometry": {"type": "Point", "coordinates": [-123.51825007770225, -57.49558473915896]}}]}